ORBCOMM FM103           
1 40091U 14040F   25099.39021935  .00001571  00000+0  37496-3 0  9995
2 40091  47.0071 342.6771 0002192 317.7413  42.3303 14.58026225554065
ORBCOMM FM114           
1 41179U 15081A   25099.48245984  .00001837  00000+0  43172-3 0  9994
2 41179  47.0007 251.3279 0001442  20.7358 339.3586 14.58083518494442
ORBCOMM FM119           
1 41180U 15081B   25099.46711837  .00001402  00000+0  33868-3 0  9998
2 41180  46.9992 160.6890 0000236 165.8415 194.2477 14.58002962495690
ORBCOMM FM105           
1 41181U 15081C   25099.84690953  .00000605  00000+0  21606-3 0  9997
2 41181  47.0002 157.2176 0001632 339.7214  20.3601 14.45146931490979
ORBCOMM FM110           
1 41182U 15081D   25099.52711152  .00002039  00000+0  47675-3 0  9995
2 41182  47.0001 250.4879 0002553 218.5887 141.4817 14.57936404494320
ORBCOMM FM118           
1 41183U 15081E   25099.58083489  .00001944  00000+0  45515-3 0  9992
2 41183  47.0028 250.6967 0002944 196.0435 164.0358 14.58036207494439
ORBCOMM FM112           
1 41184U 15081F   25099.58051130  .00001646  00000+0  39160-3 0  9999
2 41184  46.9973 159.3140 0000773 358.4283   1.6599 14.57955235495656
ORBCOMM FM113           
1 41185U 15081G   25099.48900806  .00001586  00000+0  37834-3 0  9991
2 41185  46.9989 160.0626 0000320 356.9872   3.1011 14.57993130495626
